{"type": "FeatureCollection", "features": [ {"type": "Feature", "properties": {"norad_id": 31498, "name": "FENGYUN 1C DEB", "group": "fengyun-1c-debris", "lat": -81.44391437470085, "lon": 51.35667141636431, "alt_km": 1039.4123610071938, "timestamp": "2025-12-08T08:59:01.048523+00:00", "meta": {"OBJECT_NAME": "FENGYUN 1C DEB", "OBJECT_ID": "1999-025BWM", "EPOCH": "2025-12-07T09:01:34.731552", "MEAN_MOTION": 13.76971879, "ECCENTRICITY": 0.02184706, "INCLINATION": 98.4853, "RA_OF_ASC_NODE": 313.3091, "ARG_OF_PERICENTER": 159.5169, "MEAN_ANOMALY": 201.4915, "EPHEMERIS_TYPE": 0, "CLASSIFICATION_TYPE": "U", "NORAD_CAT_ID": 31498, "ELEMENT_SET_NO": 999, "REV_AT_EPOCH": 92660, "BSTAR": 0.0019980316, "MEAN_MOTION_DOT": 2.314e-05, "MEAN_MOTION_DDOT": 0}, "tle": {"line1": "1 31498U 99025BWM 25341.37609643  .00002314  00000+0  19980-2 0  9991", "line2": "2 31498  98.4853 313.3091 0218470 159.5169 201.4915 13.76971879926605"}}, "geometry": {"type": "Point", "coordinates": [51.35667141636431, -81.44391437470085]}}, {"type": "Feature", "properties": {"norad_id": 31503, "name": "FENGYUN 1C DEB", "group": "fengyun-1c-debris", "lat": -5.087823561869481, "lon": 26.938859437342337, "alt_km": 785.9702664592814, "timestamp": "2025-12-08T08:59:01.048534+00:00", "meta": {"OBJECT_NAME": "FENGYUN 1C DEB", "OBJECT_ID": "1999-025BWS", "EPOCH": "2025-12-07T08:28:57.805248", "MEAN_MOTION": 14.22556904, "ECCENTRICITY": 0.00490467, "INCLINATION": 100.0987, "RA_OF_ASC_NODE": 206.6798, "ARG_OF_PERICENTER": 202.0276, "MEAN_ANOMALY": 157.879, "EPHEMERIS_TYPE": 0, "CLASSIFICATION_TYPE": "U", "NORAD_CAT_ID": 31503, "ELEMENT_SET_NO": 999, "REV_AT_EPOCH": 64170, "BSTAR": 0.0017221681, "MEAN_MOTION_DOT": 3.84e-05, "MEAN_MOTION_DDOT": 0}, "tle": {"line1": "1 31503U 99025BWS 25341.35344682  .00003840  00000+0  17222-2 0  9997", "line2": "2 31503 100.0987 206.6798 0049046 202.0276 157.8790 14.22556904641702"}}, "geometry": {"type": "Point", "coordinates": [26.938859437342337, -5.087823561869481]}}, {"type": "Feature", "properties": {"norad_id": 31507, "name": "FENGYUN 1C DEB", "group": "fengyun-1c-debris", "lat": 21.332970392426883, "lon": -162.04514732349105, "alt_km": 684.6851142877631, "timestamp": "2025-12-08T08:59:01.048545+00:00", "meta": {"OBJECT_NAME": "FENGYUN 1C DEB", "OBJECT_ID": "1999-025BWW", "EPOCH": "2025-12-07T22:52:58.357344", "MEAN_MOTION": 14.5214368, "ECCENTRICITY": 0.0117989, "INCLINATION": 98.1938, "RA_OF_ASC_NODE": 14.3182, "ARG_OF_PERICENTER": 92.8114, "MEAN_ANOMALY": 25.4128, "EPHEMERIS_TYPE": 0, "CLASSIFICATION_TYPE": "U", "NORAD_CAT_ID": 31507, "ELEMENT_SET_NO": 999, "REV_AT_EPOCH": 97951, "BSTAR": 0.00062414727, "MEAN_MOTION_DOT": 2.723e-05, "MEAN_MOTION_DDOT": 0}, "tle": {"line1": "1 31507U 99025BWW 25341.95345321  .00002723  00000+0  62415-3 0  9992", "line2": "2 31507  98.1938  14.3182 0117989  92.8114  25.4128 14.52143680979512"}}, "geometry": {"type": "Point", "coordinates": [-162.04514732349105, 21.332970392426883]}}, {"type": "Feature", "properties": {"norad_id": 31508, "name": "FENGYUN 1C DEB", "group": "fengyun-1c-debris", "lat": 35.870902349661606, "lon": 84.43458587685167, "alt_km": 670.4840998863147, "timestamp": "2025-12-08T08:59:01.048555+00:00", "meta": {"OBJECT_NAME": "FENGYUN 1C DEB", "OBJECT_ID": "1999-025BWX", "EPOCH": "2025-12-06T12:28:43.968576", "MEAN_MOTION": 14.62244446, "ECCENTRICITY": 0.00332175, "INCLINATION": 98.6332, "RA_OF_ASC_NODE": 88.8049, "ARG_OF_PERICENTER": 344.7452, "MEAN_ANOMALY": 15.2744, "EPHEMERIS_TYPE": 0, "CLASSIFICATION_TYPE": "U", "NORAD_CAT_ID": 31508, "ELEMENT_SET_NO": 999, "REV_AT_EPOCH": 96833, "BSTAR": 0.004912467, "MEAN_MOTION_DOT": 0.00024993, "MEAN_MOTION_DDOT": 0}, "tle": {"line1": "1 31508U 99025BWX 25340.51995334  .00024993  00000+0  49125-2 0  9994", "line2": "2 31508  98.6332  88.8049 0033217 344.7452  15.2744 14.62244446968331"}}, "geometry": {"type": "Point", "coordinates": [84.43458587685167, 35.870902349661606]}}, {"type": "Feature", "properties": {"norad_id": 31509, "name": "FENGYUN 1C DEB", "group": "fengyun-1c-debris", "lat": 60.37930574393782, "lon": 85.48795071209862, "alt_km": 1051.4709704828065, "timestamp": "2025-12-08T08:59:01.048565+00:00", "meta": {"OBJECT_NAME": "FENGYUN 1C DEB", "OBJECT_ID": "1999-025BWY", "EPOCH": "2025-12-07T18:54:19.576512", "MEAN_MOTION": 13.94842336, "ECCENTRICITY": 0.02040693, "INCLINATION": 99.0227, "RA_OF_ASC_NODE": 101.1421, "ARG_OF_PERICENTER": 231.8764, "MEAN_ANOMALY": 126.3848, "EPHEMERIS_TYPE": 0, "CLASSIFICATION_TYPE": "U", "NORAD_CAT_ID": 31509, "ELEMENT_SET_NO": 999, "REV_AT_EPOCH": 93893, "BSTAR": 0.0039387329, "MEAN_MOTION_DOT": 6.248e-05, "MEAN_MOTION_DDOT": 0}, "tle": {"line1": "1 31509U 99025BWY 25341.78772658  .00006248  00000+0  39387-2 0  9999", "line2": "2 31509  99.0227 101.1421 0204069 231.8764 126.3848 13.94842336938938"}}, "geometry": {"type": "Point", "coordinates": [85.48795071209862, 60.37930574393782]}}, {"type": "Feature", "properties": {"norad_id": 31510, "name": "FENGYUN 1C DEB", "group": "fengyun-1c-debris", "lat": 81.3400821560467, "lon": -99.4881710666545, "alt_km": 809.0310456760571, "timestamp": "2025-12-08T08:59:01.048576+00:00", "meta": {"OBJECT_NAME": "FENGYUN 1C DEB", "OBJECT_ID": "1999-025BWZ", "EPOCH": "2025-12-06T06:04:31.555200", "MEAN_MOTION": 14.2453779, "ECCENTRICITY": 0.00375224, "INCLINATION": 98.5536, "RA_OF_ASC_NODE": 339.6242, "ARG_OF_PERICENTER": 350.7602, "MEAN_ANOMALY": 25.5517, "EPHEMERIS_TYPE": 0, "CLASSIFICATION_TYPE": "U", "NORAD_CAT_ID": 31510, "ELEMENT_SET_NO": 999, "REV_AT_EPOCH": 96395, "BSTAR": 0.00098453338, "MEAN_MOTION_DOT": 2.258e-05, "MEAN_MOTION_DDOT": 0}, "tle": {"line1": "1 31510U 99025BWZ 25340.25314300  .00002258  00000+0  98453-3 0  9995", "line2": "2 31510  98.5536 339.6242 0037522 350.7602  25.5517 14.24537790963958"}}, "geometry": {"type": "Point", "coordinates": [-99.4881710666545, 81.3400821560467]}}, {"type": "Feature", "properties": {"norad_id": 31511, "name": "FENGYUN 1C DEB", "group": "fengyun-1c-debris", "lat": 25.547718382487503, "lon": 146.4764189105328, "alt_km": 863.205619446303, "timestamp": "2025-12-08T08:59:01.048586+00:00", "meta": {"OBJECT_NAME": "FENGYUN 1C DEB", "OBJECT_ID": "1999-025BXA", "EPOCH": "2025-12-05T22:00:15.181632", "MEAN_MOTION": 14.27991614, "ECCENTRICITY": 0.01096951, "INCLINATION": 99.0676, "RA_OF_ASC_NODE": 148.3037, "ARG_OF_PERICENTER": 246.1309, "MEAN_ANOMALY": 112.8345, "EPHEMERIS_TYPE": 0, "CLASSIFICATION_TYPE": "U", "NORAD_CAT_ID": 31511, "ELEMENT_SET_NO": 999, "REV_AT_EPOCH": 95703, "BSTAR": 0.002130032, "MEAN_MOTION_DOT": 5.59e-05, "MEAN_MOTION_DDOT": 0}, "tle": {"line1": "1 31511U 99025BXA 25339.91684238  .00005590  00000+0  21300-2 0  9995", "line2": "2 31511  99.0676 148.3037 0109695 246.1309 112.8345 14.27991614957033"}}, "geometry": {"type": "Point", "coordinates": [146.4764189105328, 25.547718382487503]}}, {"type": "Feature", "properties": {"norad_id": 31512, "name": "FENGYUN 1C DEB", "group": "fengyun-1c-debris", "lat": 15.769873957638023, "lon": -124.90266601631922, "alt_km": 829.1331564362599, "timestamp": "2025-12-08T08:59:01.048596+00:00", "meta": {"OBJECT_NAME": "FENGYUN 1C DEB", "OBJECT_ID": "1999-025BXB", "EPOCH": "2025-12-07T13:30:10.106208", "MEAN_MOTION": 14.4379554, "ECCENTRICITY": 0.0144088, "INCLINATION": 98.8038, "RA_OF_ASC_NODE": 236.7662, "ARG_OF_PERICENTER": 162.4384, "MEAN_ANOMALY": 318.0859, "EPHEMERIS_TYPE": 0, "CLASSIFICATION_TYPE": "U", "NORAD_CAT_ID": 31512, "ELEMENT_SET_NO": 999, "REV_AT_EPOCH": 65427, "BSTAR": 0.00072922884, "MEAN_MOTION_DOT": 2.764e-05, "MEAN_MOTION_DDOT": 0}, "tle": {"line1": "1 31512U 99025BXB 25341.56261697  .00002764  00000+0  72923-3 0  9998", "line2": "2 31512  98.8038 236.7662 0144088 162.4384 318.0859 14.43795540654275"}}, "geometry": {"type": "Point", "coordinates": [-124.90266601631922, 15.769873957638023]}}, {"type": "Feature", "properties": {"norad_id": 31513, "name": "FENGYUN 1C DEB", "group": "fengyun-1c-debris", "lat": 42.035170729842704, "lon": 70.91705488326492, "alt_km": 781.6014923196699, "timestamp": "2025-12-08T08:59:01.048607+00:00", "meta": {"OBJECT_NAME": "FENGYUN 1C DEB", "OBJECT_ID": "1999-025BXC", "EPOCH": "2025-11-25T02:15:23.832576", "MEAN_MOTION": 14.32315683, "ECCENTRICITY": 0.00282412, "INCLINATION": 98.8622, "RA_OF_ASC_NODE": 65.435, "ARG_OF_PERICENTER": 176.3464, "MEAN_ANOMALY": 183.7931, "EPHEMERIS_TYPE": 0, "CLASSIFICATION_TYPE": "U", "NORAD_CAT_ID": 31513, "ELEMENT_SET_NO": 999, "REV_AT_EPOCH": 72616, "BSTAR": 0.0023967664, "MEAN_MOTION_DOT": 6.459e-05, "MEAN_MOTION_DDOT": 0}, "tle": {"line1": "1 31513U 99025BXC 25329.09402584  .00006459  00000+0  23968-2 0  9994", "line2": "2 31513  98.8622  65.4350 0028241 176.3464 183.7931 14.32315683726161"}}, "geometry": {"type": "Point", "coordinates": [70.91705488326492, 42.035170729842704]}}, {"type": "Feature", "properties": {"norad_id": 31514, "name": "FENGYUN 1C DEB", "group": "fengyun-1c-debris", "lat": 39.26354997185667, "lon": 70.5679252987928, "alt_km": 782.3550646764952, "timestamp": "2025-12-08T08:59:01.048617+00:00", "meta": {"OBJECT_NAME": "FENGYUN 1C DEB", "OBJECT_ID": "1999-025BXD", "EPOCH": "2025-12-06T15:46:13.233504", "MEAN_MOTION": 14.20926247, "ECCENTRICITY": 0.00522229, "INCLINATION": 99.2471, "RA_OF_ASC_NODE": 241.1191, "ARG_OF_PERICENTER": 132.5364, "MEAN_ANOMALY": 228.0239, "EPHEMERIS_TYPE": 0, "CLASSIFICATION_TYPE": "U", "NORAD_CAT_ID": 31514, "ELEMENT_SET_NO": 999, "REV_AT_EPOCH": 69238, "BSTAR": 0.0026683713, "MEAN_MOTION_DOT": 5.813e-05, "MEAN_MOTION_DDOT": 0}, "tle": {"line1": "1 31514U 99025BXD 25340.65709761  .00005813  00000+0  26684-2 0  9998", "line2": "2 31514  99.2471 241.1191 0052222 132.5364 228.0239 14.20926247692385"}}, "geometry": {"type": "Point", "coordinates": [70.5679252987928, 39.26354997185667]}}]}